{"type": "FeatureCollection", "features": [ {"type": "Feature", "properties": {"norad_id": 66574, "name": "STARLINK-35812", "group": "last-30-days", "lat": 25.86664479516141, "lon": -144.16483556859149, "alt_km": 394.5022438286569, "timestamp": "2025-12-21T22:41:40.163028+00:00", "meta": {"OBJECT_NAME": "STARLINK-35812", "OBJECT_ID": "2025-268T", "EPOCH": "2025-12-21T14:00:01.999872", "MEAN_MOTION": 15.56395111, "ECCENTRICITY": 0.00014626, "INCLINATION": 43.0009, "RA_OF_ASC_NODE": 69.3256, "ARG_OF_PERICENTER": 267.619, "MEAN_ANOMALY": 0.392, "EPHEMERIS_TYPE": 0, "CLASSIFICATION_TYPE": "U", "NORAD_CAT_ID": 66574, "ELEMENT_SET_NO": 999, "REV_AT_EPOCH": 608, "BSTAR": 0.00079174664, "MEAN_MOTION_DOT": 0.0005745, "MEAN_MOTION_DDOT": 0}, "tle": {"line1": "1 66574U 25268T   25355.58335648  .00057450  00000+0  79175-3 0  9995", "line2": "2 66574  43.0009  69.3256 0001462 267.6190   0.3920 15.56395111  6086"}}, "geometry": {"type": "Point", "coordinates": [-144.16483556859149, 25.86664479516141]}}, {"type": "Feature", "properties": {"norad_id": 66575, "name": "STARLINK-35810", "group": "last-30-days", "lat": 24.739555227765212, "lon": -142.4516189364182, "alt_km": 394.6838723116416, "timestamp": "2025-12-21T22:41:40.163038+00:00", "meta": {"OBJECT_NAME": "STARLINK-35810", "OBJECT_ID": "2025-268U", "EPOCH": "2025-12-21T14:00:01.999872", "MEAN_MOTION": 15.56444168, "ECCENTRICITY": 0.00013609, "INCLINATION": 43.001, "RA_OF_ASC_NODE": 69.3212, "ARG_OF_PERICENTER": 262.0038, "MEAN_ANOMALY": 7.9214, "EPHEMERIS_TYPE": 0, "CLASSIFICATION_TYPE": "U", "NORAD_CAT_ID": 66575, "ELEMENT_SET_NO": 999, "REV_AT_EPOCH": 608, "BSTAR": -0.00098976318, "MEAN_MOTION_DOT": -0.00071613, "MEAN_MOTION_DDOT": 0}, "tle": {"line1": "1 66575U 25268U   25355.58335648 -.00071613  00000+0 -98976-3 0  9995", "line2": "2 66575  43.0010  69.3212 0001360 262.0038   7.9214 15.56444168  6084"}}, "geometry": {"type": "Point", "coordinates": [-142.4516189364182, 24.739555227765212]}}, {"type": "Feature", "properties": {"norad_id": 66576, "name": "STARLINK-35814", "group": "last-30-days", "lat": 23.593232422125748, "lon": -140.77110192741094, "alt_km": 394.84582049854, "timestamp": "2025-12-21T22:41:40.163048+00:00", "meta": {"OBJECT_NAME": "STARLINK-35814", "OBJECT_ID": "2025-268V", "EPOCH": "2025-12-21T14:00:01.999872", "MEAN_MOTION": 15.5643833, "ECCENTRICITY": 0.00013832, "INCLINATION": 43.001, "RA_OF_ASC_NODE": 69.3153, "ARG_OF_PERICENTER": 261.9308, "MEAN_ANOMALY": 9.915, "EPHEMERIS_TYPE": 0, "CLASSIFICATION_TYPE": "U", "NORAD_CAT_ID": 66576, "ELEMENT_SET_NO": 999, "REV_AT_EPOCH": 608, "BSTAR": -0.00086169409, "MEAN_MOTION_DOT": -0.00062452, "MEAN_MOTION_DDOT": 0}, "tle": {"line1": "1 66576U 25268V   25355.58335648 -.00062452  00000+0 -86169-3 0  9998", "line2": "2 66576  43.0010  69.3153 0001383 261.9308   9.9150 15.56438330  6087"}}, "geometry": {"type": "Point", "coordinates": [-140.77110192741094, 23.593232422125748]}}, {"type": "Feature", "properties": {"norad_id": 66577, "name": "STARLINK-35815", "group": "last-30-days", "lat": 22.435057600040633, "lon": -139.1274298662497, "alt_km": 395.06922324683546, "timestamp": "2025-12-21T22:41:40.163059+00:00", "meta": {"OBJECT_NAME": "STARLINK-35815", "OBJECT_ID": "2025-268W", "EPOCH": "2025-12-21T14:00:01.999872", "MEAN_MOTION": 15.56397027, "ECCENTRICITY": 0.00013888, "INCLINATION": 43.0008, "RA_OF_ASC_NODE": 69.3106, "ARG_OF_PERICENTER": 266.6297, "MEAN_ANOMALY": 7.1499, "EPHEMERIS_TYPE": 0, "CLASSIFICATION_TYPE": "U", "NORAD_CAT_ID": 66577, "ELEMENT_SET_NO": 999, "REV_AT_EPOCH": 608, "BSTAR": -8.3320362e-05, "MEAN_MOTION_DOT": -6.404e-05, "MEAN_MOTION_DDOT": 0}, "tle": {"line1": "1 66577U 25268W   25355.58335648 -.00006404  00000+0 -83320-4 0  9991", "line2": "2 66577  43.0008  69.3106 0001388 266.6297   7.1499 15.56397027  6080"}}, "geometry": {"type": "Point", "coordinates": [-139.1274298662497, 22.435057600040633]}}, {"type": "Feature", "properties": {"norad_id": 66578, "name": "STARLINK-35743", "group": "last-30-days", "lat": 21.196729946646805, "lon": -137.42455582122025, "alt_km": 395.2357623081589, "timestamp": "2025-12-21T22:41:40.163069+00:00", "meta": {"OBJECT_NAME": "STARLINK-35743", "OBJECT_ID": "2025-268X", "EPOCH": "2025-12-21T14:21:41.542272", "MEAN_MOTION": 15.56441988, "ECCENTRICITY": 0.00019138, "INCLINATION": 43.0014, "RA_OF_ASC_NODE": 69.2168, "ARG_OF_PERICENTER": 276.2528, "MEAN_ANOMALY": 83.8116, "EPHEMERIS_TYPE": 0, "CLASSIFICATION_TYPE": "U", "NORAD_CAT_ID": 66578, "ELEMENT_SET_NO": 999, "REV_AT_EPOCH": 600, "BSTAR": 0.0014656253, "MEAN_MOTION_DOT": 0.00107528, "MEAN_MOTION_DDOT": 0}, "tle": {"line1": "1 66578U 25268X   25355.59839748  .00107528  00000+0  14656-2 0  9994", "line2": "2 66578  43.0014  69.2168 0001913 276.2528  83.8116 15.56441988  6008"}}, "geometry": {"type": "Point", "coordinates": [-137.42455582122025, 21.196729946646805]}}, {"type": "Feature", "properties": {"norad_id": 66579, "name": "STARLINK-35868", "group": "last-30-days", "lat": 20.05326062053077, "lon": -135.89778661116898, "alt_km": 395.35701970900664, "timestamp": "2025-12-21T22:41:40.163080+00:00", "meta": {"OBJECT_NAME": "STARLINK-35868", "OBJECT_ID": "2025-268Y", "EPOCH": "2025-12-21T14:00:01.999872", "MEAN_MOTION": 15.56430167, "ECCENTRICITY": 0.00014173, "INCLINATION": 43.001, "RA_OF_ASC_NODE": 69.301, "ARG_OF_PERICENTER": 263.5402, "MEAN_ANOMALY": 14.0596, "EPHEMERIS_TYPE": 0, "CLASSIFICATION_TYPE": "U", "NORAD_CAT_ID": 66579, "ELEMENT_SET_NO": 999, "REV_AT_EPOCH": 608, "BSTAR": -0.00067306556, "MEAN_MOTION_DOT": -0.00048929, "MEAN_MOTION_DDOT": 0}, "tle": {"line1": "1 66579U 25268Y   25355.58335648 -.00048929  00000+0 -67307-3 0  9997", "line2": "2 66579  43.0010  69.3010 0001417 263.5402  14.0596 15.56430167  6084"}}, "geometry": {"type": "Point", "coordinates": [-135.89778661116898, 20.05326062053077]}}, {"type": "Feature", "properties": {"norad_id": 66580, "name": "STARLINK-35872", "group": "last-30-days", "lat": 18.769079167275603, "lon": -134.22935991894644, "alt_km": 394.9017609924531, "timestamp": "2025-12-21T22:41:40.163090+00:00", "meta": {"OBJECT_NAME": "STARLINK-35872", "OBJECT_ID": "2025-268Z", "EPOCH": "2025-12-21T14:20:42.188064", "MEAN_MOTION": 15.56454069, "ECCENTRICITY": 0.00027322, "INCLINATION": 43.004, "RA_OF_ASC_NODE": 69.2089, "ARG_OF_PERICENTER": 246.8898, "MEAN_ANOMALY": 113.1677, "EPHEMERIS_TYPE": 0, "CLASSIFICATION_TYPE": "U", "NORAD_CAT_ID": 66580, "ELEMENT_SET_NO": 999, "REV_AT_EPOCH": 600, "BSTAR": 0.0020651809, "MEAN_MOTION_DOT": 0.00152609, "MEAN_MOTION_DDOT": 0}, "tle": {"line1": "1 66580U 25268Z   25355.59771051  .00152609  00000+0  20652-2 0  9992", "line2": "2 66580  43.0040  69.2089 0002732 246.8898 113.1677 15.56454069  6008"}}, "geometry": {"type": "Point", "coordinates": [-134.22935991894644, 18.769079167275603]}}, {"type": "Feature", "properties": {"norad_id": 66581, "name": "STARLINK-35744", "group": "last-30-days", "lat": 17.621153422485687, "lon": -132.77543736698064, "alt_km": 395.8347692466159, "timestamp": "2025-12-21T22:41:40.163100+00:00", "meta": {"OBJECT_NAME": "STARLINK-35744", "OBJECT_ID": "2025-268AA", "EPOCH": "2025-12-21T14:00:01.999872", "MEAN_MOTION": 15.56396017, "ECCENTRICITY": 0.00014198, "INCLINATION": 43.0009, "RA_OF_ASC_NODE": 69.2909, "ARG_OF_PERICENTER": 272.8182, "MEAN_ANOMALY": 8.6381, "EPHEMERIS_TYPE": 0, "CLASSIFICATION_TYPE": "U", "NORAD_CAT_ID": 66581, "ELEMENT_SET_NO": 999, "REV_AT_EPOCH": 604, "BSTAR": -0.0001264808, "MEAN_MOTION_DOT": -9.527e-05, "MEAN_MOTION_DDOT": 0}, "tle": {"line1": "1 66581U 25268AA  25355.58335648 -.00009527  00000+0 -12648-3 0  9999", "line2": "2 66581  43.0009  69.2909 0001419 272.8182   8.6381 15.56396017  6043"}}, "geometry": {"type": "Point", "coordinates": [-132.77543736698064, 17.621153422485687]}}, {"type": "Feature", "properties": {"norad_id": 66582, "name": "STARLINK-35746", "group": "last-30-days", "lat": 16.3878669651735, "lon": -131.24810537679147, "alt_km": 396.0178892060412, "timestamp": "2025-12-21T22:41:40.163110+00:00", "meta": {"OBJECT_NAME": "STARLINK-35746", "OBJECT_ID": "2025-268AB", "EPOCH": "2025-12-21T14:00:01.999872", "MEAN_MOTION": 15.56394889, "ECCENTRICITY": 0.00014427, "INCLINATION": 43.0009, "RA_OF_ASC_NODE": 69.286, "ARG_OF_PERICENTER": 273.8496, "MEAN_ANOMALY": 9.5205, "EPHEMERIS_TYPE": 0, "CLASSIFICATION_TYPE": "U", "NORAD_CAT_ID": 66582, "ELEMENT_SET_NO": 999, "REV_AT_EPOCH": 608, "BSTAR": -7.3572042e-05, "MEAN_MOTION_DOT": -5.698e-05, "MEAN_MOTION_DDOT": 0}, "tle": {"line1": "1 66582U 25268AB  25355.58335648 -.00005698  00000+0 -73572-4 0  9999", "line2": "2 66582  43.0009  69.2860 0001442 273.8496   9.5205 15.56394889  6089"}}, "geometry": {"type": "Point", "coordinates": [-131.24810537679147, 16.3878669651735]}}, {"type": "Feature", "properties": {"norad_id": 66583, "name": "STARLINK-35941", "group": "last-30-days", "lat": 15.144375887150723, "lon": -129.7407179468175, "alt_km": 396.226116478103, "timestamp": "2025-12-21T22:41:40.163120+00:00", "meta": {"OBJECT_NAME": "STARLINK-35941", "OBJECT_ID": "2025-268AC", "EPOCH": "2025-12-21T14:00:01.999872", "MEAN_MOTION": 15.56379057, "ECCENTRICITY": 0.00014648, "INCLINATION": 43.0009, "RA_OF_ASC_NODE": 69.2814, "ARG_OF_PERICENTER": 277.7851, "MEAN_ANOMALY": 7.5037, "EPHEMERIS_TYPE": 0, "CLASSIFICATION_TYPE": "U", "NORAD_CAT_ID": 66583, "ELEMENT_SET_NO": 999, "REV_AT_EPOCH": 608, "BSTAR": 0.00035292516, "MEAN_MOTION_DOT": 0.00025285, "MEAN_MOTION_DDOT": 0}, "tle": {"line1": "1 66583U 25268AC  25355.58335648  .00025285  00000+0  35293-3 0  9999", "line2": "2 66583  43.0009  69.2814 0001464 277.7851   7.5037 15.56379057  6082"}}, "geometry": {"type": "Point", "coordinates": [-129.7407179468175, 15.144375887150723]}}]}